[
    {
        "CCSDS_OMM_VERS": "3.0",
        "COMMENT": "GENERATED VIA SPACE-TRACK.ORG API",
        "CREATION_DATE": "2025-05-03T02:26:48",
        "ORIGINATOR": "18 SPCS",
        "OBJECT_NAME": "BEIDOU 3M7",
        "OBJECT_ID": "2018-029A",
        "CENTER_NAME": "EARTH",
        "REF_FRAME": "TEME",
        "TIME_SYSTEM": "UTC",
        "MEAN_ELEMENT_THEORY": "SGP4",
        "EPOCH": "2025-05-02T04:17:21.930720",
        "MEAN_MOTION": "1.86232583",
        "ECCENTRICITY": "0.00005760",
        "INCLINATION": "54.5617",
        "RA_OF_ASC_NODE": "314.2827",
        "ARG_OF_PERICENTER": "72.4918",
        "MEAN_ANOMALY": "287.5140",
        "EPHEMERIS_TYPE": "0",
        "CLASSIFICATION_TYPE": "U",
        "NORAD_CAT_ID": "43245",
        "ELEMENT_SET_NO": "999",
        "REV_AT_EPOCH": "4824",
        "BSTAR": "0.00000000000000",
        "MEAN_MOTION_DOT": "-0.00000066",
        "MEAN_MOTION_DDOT": "0.0000000000000",
        "SEMIMAJOR_AXIS": "27906.030",
        "PERIOD": "773.227",
        "APOAPSIS": "21529.503",
        "PERIAPSIS": "21526.288",
        "OBJECT_TYPE": "PAYLOAD",
        "RCS_SIZE": "LARGE",
        "COUNTRY_CODE": "PRC",
        "LAUNCH_DATE": "2018-03-29",
        "SITE": "XSC",
        "DECAY_DATE": null,
        "FILE": "4717276",
        "GP_ID": "286716079",
        "TLE_LINE0": "0 BEIDOU 3M7",
        "TLE_LINE1": "1 43245U 18029A   25122.17872605 -.00000066  00000-0  00000-0 0  9999",
        "TLE_LINE2": "2 43245  54.5617 314.2827 0000576  72.4918 287.5140  1.86232583 48247"
    }
]